{
  "type": "FeatureCollection",
  "features": [
    {
      "type": "Feature",
      "properties": {
        "norad_id": 63772,
        "name": "BIOMASS",
        "group": "resource",
        "lat": -65.71680864877828,
        "lon": -167.9045586089923,
        "alt_km": 676.7846701076132,
        "timestamp": "2025-12-14T18:52:55.156204+00:00",
        "meta_object_name": "BIOMASS",
        "meta_object_id": "2025-090A",
        "meta_epoch": "2025-12-13T23:33:02.159136",
        "meta_mean_motion": 14.67544461,
        "meta_eccentricity": 0.0001146,
        "meta_inclination": 98.07,
        "meta_ra_of_asc_node": 172.9727,
        "meta_arg_of_pericenter": 78.7944,
        "meta_mean_anomaly": 281.3389,
        "meta_ephemeris_type": 0,
        "meta_classification_type": "U",
        "meta_norad_cat_id": 63772,
        "meta_element_set_no": 999,
        "meta_rev_at_epoch": 3352,
        "meta_bstar": 0.00034409202,
        "meta_mean_motion_dot": 1.904e-05,
        "meta_mean_motion_ddot": 0,
        "tle_line1": "1 63772U 25090A   25347.98127499  .00001904  00000+0  34409-3 0  9997",
        "tle_line2": "2 63772  98.0700 172.9727 0001146  78.7944 281.3389 14.67544461 33526"
      },
      "geometry": {
        "type": "Point",
        "coordinates": [
          -167.9045586089923,
          -65.71680864877828
        ]
      }
    },
    {
      "type": "Feature",
      "properties": {
        "norad_id": 64694,
        "name": "GOSAT-GW (IBUKI GW)",
        "group": "resource",
        "lat": 36.793270982375006,
        "lon": 110.33276448672261,
        "alt_km": 665.7540148369499,
        "timestamp": "2025-12-14T18:52:55.156214+00:00",
        "meta_object_name": "GOSAT-GW (IBUKI GW)",
        "meta_object_id": "2025-141A",
        "meta_epoch": "2025-12-14T00:14:03.409152",
        "meta_mean_motion": 14.67560819,
        "meta_eccentricity": 0.00014706,
        "meta_inclination": 98.0426,
        "meta_ra_of_asc_node": 283.4996,
        "meta_arg_of_pericenter": 84.2913,
        "meta_mean_anomaly": 275.8459,
        "meta_ephemeris_type": 0,
        "meta_classification_type": "U",
        "meta_norad_cat_id": 64694,
        "meta_element_set_no": 999,
        "meta_rev_at_epoch": 2468,
        "meta_bstar": 0.00026770698,
        "meta_mean_motion_dot": 1.471e-05,
        "meta_mean_motion_ddot": 0,
        "tle_line1": "1 64694U 25141A   25348.00976168  .00001471  00000+0  26771-3 0  9999",
        "tle_line2": "2 64694  98.0426 283.4996 0001470  84.2913 275.8459 14.67560819 24687"
      },
      "geometry": {
        "type": "Point",
        "coordinates": [
          110.33276448672261,
          36.793270982375006
        ]
      }
    },
    {
      "type": "Feature",
      "properties": {
        "norad_id": 64876,
        "name": "IONOSFERA-M 3",
        "group": "resource",
        "lat": 13.872433028189358,
        "lon": 132.7311458566795,
        "alt_km": 821.9764167358489,
        "timestamp": "2025-12-14T18:52:55.156225+00:00",
        "meta_object_name": "IONOSFERA-M 3",
        "meta_object_id": "2025-155A",
        "meta_epoch": "2025-12-13T23:31:16.372704",
        "meta_mean_motion": 14.2144136,
        "meta_eccentricity": 0.00022052,
        "meta_inclination": 98.5783,
        "meta_ra_of_asc_node": 309.811,
        "meta_arg_of_pericenter": 58.1587,
        "meta_mean_anomaly": 301.9805,
        "meta_ephemeris_type": 0,
        "meta_classification_type": "U",
        "meta_norad_cat_id": 64876,
        "meta_element_set_no": 999,
        "meta_rev_at_epoch": 2009,
        "meta_bstar": 7.5466674e-05,
        "meta_mean_motion_dot": 1.22e-06,
        "meta_mean_motion_ddot": 0,
        "tle_line1": "1 64876U 25155A   25347.98005061  .00000122  00000+0  75467-4 0  9996",
        "tle_line2": "2 64876  98.5783 309.8110 0002205  58.1587 301.9805 14.21441360 20091"
      },
      "geometry": {
        "type": "Point",
        "coordinates": [
          132.7311458566795,
          13.872433028189358
        ]
      }
    },
    {
      "type": "Feature",
      "properties": {
        "norad_id": 64877,
        "name": "IONOSFERA-M 4",
        "group": "resource",
        "lat": -13.482160972541909,
        "lon": -47.41169549350515,
        "alt_km": 824.654138744806,
        "timestamp": "2025-12-14T18:52:55.156235+00:00",
        "meta_object_name": "IONOSFERA-M 4",
        "meta_object_id": "2025-155B",
        "meta_epoch": "2025-12-14T00:21:45.998208",
        "meta_mean_motion": 14.2144254,
        "meta_eccentricity": 0.00015808,
        "meta_inclination": 98.5782,
        "meta_ra_of_asc_node": 309.7647,
        "meta_arg_of_pericenter": 62.2615,
        "meta_mean_anomaly": 297.8723,
        "meta_ephemeris_type": 0,
        "meta_classification_type": "U",
        "meta_norad_cat_id": 64877,
        "meta_element_set_no": 999,
        "meta_rev_at_epoch": 2009,
        "meta_bstar": 7.7857142e-05,
        "meta_mean_motion_dot": 1.28e-06,
        "meta_mean_motion_ddot": 0,
        "tle_line1": "1 64877U 25155B   25348.01511572  .00000128  00000+0  77857-4 0  9992",
        "tle_line2": "2 64877  98.5782 309.7647 0001580  62.2615 297.8723 14.21442540 20091"
      },
      "geometry": {
        "type": "Point",
        "coordinates": [
          -47.41169549350515,
          -13.482160972541909
        ]
      }
    },
    {
      "type": "Feature",
      "properties": {
        "norad_id": 64899,
        "name": "MICROCARB",
        "group": "resource",
        "lat": 26.102366369061123,
        "lon": -111.94850845880572,
        "alt_km": 641.9116419216107,
        "timestamp": "2025-12-14T18:52:55.156245+00:00",
        "meta_object_name": "MICROCARB",
        "meta_object_id": "2025-156A",
        "meta_epoch": "2025-12-13T22:36:41.192352",
        "meta_mean_motion": 14.7205943,
        "meta_eccentricity": 0.00172236,
        "meta_inclination": 98.0024,
        "meta_ra_of_asc_node": 63.2683,
        "meta_arg_of_pericenter": 141.0615,
        "meta_mean_anomaly": 219.1837,
        "meta_ephemeris_type": 0,
        "meta_classification_type": "U",
        "meta_norad_cat_id": 64899,
        "meta_element_set_no": 999,
        "meta_rev_at_epoch": 2071,
        "meta_bstar": 0.00016727062,
        "meta_mean_motion_dot": 1.004e-05,
        "meta_mean_motion_ddot": 0,
        "tle_line1": "1 64899U 25156A   25347.94214343  .00001004  00000+0  16727-3 0  9996",
        "tle_line2": "2 64899  98.0024  63.2683 0017223 141.0615 219.1837 14.72059430 20718"
      },
      "geometry": {
        "type": "Point",
        "coordinates": [
          -111.94850845880572,
          26.102366369061123
        ]
      }
    },
    {
      "type": "Feature",
      "properties": {
        "norad_id": 64900,
        "name": "CO3D 3",
        "group": "resource",
        "lat": -9.219560965140715,
        "lon": -116.09004237121403,
        "alt_km": 509.57010779757275,
        "timestamp": "2025-12-14T18:52:55.156255+00:00",
        "meta_object_name": "CO3D 3",
        "meta_object_id": "2025-156B",
        "meta_epoch": "2025-12-13T16:46:35.865408",
        "meta_mean_motion": 15.2020033,
        "meta_eccentricity": 0.00013843,
        "meta_inclination": 97.4344,
        "meta_ra_of_asc_node": 64.0523,
        "meta_arg_of_pericenter": 93.9049,
        "meta_mean_anomaly": 266.2345,
        "meta_ephemeris_type": 0,
        "meta_classification_type": "U",
        "meta_norad_cat_id": 64900,
        "meta_element_set_no": 999,
        "meta_rev_at_epoch": 2135,
        "meta_bstar": 0.00015817929,
        "meta_mean_motion_dot": 3.358e-05,
        "meta_mean_motion_ddot": 0,
        "tle_line1": "1 64900U 25156B   25347.69902622  .00003358  00000+0  15818-3 0  9999",
        "tle_line2": "2 64900  97.4344  64.0523 0001384  93.9049 266.2345 15.20200330 21357"
      },
      "geometry": {
        "type": "Point",
        "coordinates": [
          -116.09004237121403,
          -9.219560965140715
        ]
      }
    },
    {
      "type": "Feature",
      "properties": {
        "norad_id": 64901,
        "name": "CO3D 4",
        "group": "resource",
        "lat": -8.572293198638539,
        "lon": -116.00674815290822,
        "alt_km": 508.79747113258236,
        "timestamp": "2025-12-14T18:52:55.156265+00:00",
        "meta_object_name": "CO3D 4",
        "meta_object_id": "2025-156C",
        "meta_epoch": "2025-12-12T15:30:13.261248",
        "meta_mean_motion": 15.20210943,
        "meta_eccentricity": 0.00010187,
        "meta_inclination": 97.4314,
        "meta_ra_of_asc_node": 63.0114,
        "meta_arg_of_pericenter": 237.4062,
        "meta_mean_anomaly": 122.7075,
        "meta_ephemeris_type": 0,
        "meta_classification_type": "U",
        "meta_norad_cat_id": 64901,
        "meta_element_set_no": 999,
        "meta_rev_at_epoch": 2119,
        "meta_bstar": 5.204221e-05,
        "meta_mean_motion_dot": 1.059e-05,
        "meta_mean_motion_ddot": 0,
        "tle_line1": "1 64901U 25156C   25346.64598682  .00001059  00000+0  52042-4 0  9998",
        "tle_line2": "2 64901  97.4314  63.0114 0001018 237.4062 122.7075 15.20210943 21193"
      },
      "geometry": {
        "type": "Point",
        "coordinates": [
          -116.00674815290822,
          -8.572293198638539
        ]
      }
    }
  ]
}